{
  "type": "FeatureCollection",
  "features": [
    {
      "type": "Feature",
      "properties": {
        "ID_0": 177,
        "ISO": "PHL",
        "NAME_0": "Philippines",
        "ID_1": 15,
        "NAME_1": "Bohol",
        "ID_2": 252,
        "NAME_2": "Tagbilaran City",
        "ID_3": 5723,
        "NAME_3": "Bool",
        "NL_NAME_3": null,
        "VARNAME_3": null,
        "TYPE_3": "Barangay",
        "ENGTYPE_3": "Village",
        "PROVINCE": "Bohol",
        "REGION": "Central Visayas (Region VII)"
      },
      "geometry": {
        "type": "Polygon",
        "coordinates": [
          [
            [123.88807678222656, 9.651550292968864],
            [123.8793869018557, 9.642350196838379],
            [123.87390136718761, 9.628780364990348],
            [123.87352752685558, 9.627169609069881],
            [123.88205718994163, 9.6251096725465],
            [123.88864135742188, 9.625340461731014],
            [123.88807678222656, 9.651550292968864]
          ]
        ]
      }
    },
    {
      "type": "Feature",
      "properties": {
        "ID_0": 177,
        "ISO": "PHL",
        "NAME_0": "Philippines",
        "ID_1": 15,
        "NAME_1": "Bohol",
        "ID_2": 252,
        "NAME_2": "Tagbilaran City",
        "ID_3": 5724,
        "NAME_3": "Booy",
        "NL_NAME_3": null,
        "VARNAME_3": null,
        "TYPE_3": "Barangay",
        "ENGTYPE_3": "Village",
        "PROVINCE": "Bohol",
        "REGION": "Central Visayas (Region VII)"
      },
      "geometry": {
        "type": "Polygon",
        "coordinates": [
          [
            [123.85964965820312, 9.668729782104435],
            [123.84429931640648, 9.667499542236442],
            [123.84410095214866, 9.66205024719244],
            [123.84649658203125, 9.65662002563488],
            [123.84638214111328, 9.657159805297965],
            [123.85743713378906, 9.658379554748592],
            [123.85768127441418, 9.65977954864502],
            [123.8582992553711, 9.661709785461426],
            [123.85912322998047, 9.664079666137695],
            [123.85964965820312, 9.668729782104435]
          ]
        ]
      }
    },
    {
      "type": "Feature",
      "properties": {
        "ID_0": 177,
        "ISO": "PHL",
        "NAME_0": "Philippines",
        "ID_1": 15,
        "NAME_1": "Bohol",
        "ID_2": 252,
        "NAME_2": "Tagbilaran City",
        "ID_3": 5725,
        "NAME_3": "Cabawan",
        "NL_NAME_3": null,
        "VARNAME_3": null,
        "TYPE_3": "Barangay",
        "ENGTYPE_3": "Village",
        "PROVINCE": "Bohol",
        "REGION": "Central Visayas (Region VII)"
      },
      "geometry": {
        "type": "Polygon",
        "coordinates": [
          [
            [123.87713623046886, 9.697879791259766],
            [123.88007354736328, 9.68552017211914],
            [123.88854980468773, 9.682299613952694],
            [123.88951110839855, 9.692159652710075],
            [123.88645172119163, 9.694339752197322],
            [123.88223266601562, 9.693599700927791],
            [123.8794403076173, 9.694769859314022],
            [123.87962341308605, 9.696920394897575],
            [123.87713623046886, 9.697879791259766]
          ]
        ]
      }
    },
    {
      "type": "Feature",
      "properties": {
        "ID_0": 177,
        "ISO": "PHL",
        "NAME_0": "Philippines",
        "ID_1": 15,
        "NAME_1": "Bohol",
        "ID_2": 252,
        "NAME_2": "Tagbilaran City",
        "ID_3": 5726,
        "NAME_3": "Cogon",
        "NL_NAME_3": null,
        "VARNAME_3": null,
        "TYPE_3": "Barangay",
        "ENGTYPE_3": "Village",
        "PROVINCE": "Bohol",
        "REGION": "Central Visayas (Region VII)"
      },
      "geometry": {
        "type": "Polygon",
        "coordinates": [
          [
            [123.86518859863281, 9.647930145263672],
            [123.86580657958984, 9.648929595947322],
            [123.86797332763683, 9.652529716491756],
            [123.86746978759766, 9.656530380249194],
            [123.8591232299807, 9.664079666137695],
            [123.8582992553711, 9.661709785461426],
            [123.85768127441418, 9.65977954864502],
            [123.85743713378906, 9.658379554748763],
            [123.84638214111328, 9.657159805297965],
            [123.84649658203125, 9.65662002563488],
            [123.84754943847668, 9.653409957886026],
            [123.85035705566406, 9.647890090942383],
            [123.85613250732433, 9.648099899292106],
            [123.86250305175781, 9.646989822387752],
            [123.86518859863281, 9.647930145263672]
          ]
        ]
      }
    },
    {
      "type": "Feature",
      "properties": {
        "ID_0": 177,
        "ISO": "PHL",
        "NAME_0": "Philippines",
        "ID_1": 15,
        "NAME_1": "Bohol",
        "ID_2": 252,
        "NAME_2": "Tagbilaran City",
        "ID_3": 5727,
        "NAME_3": "Dampas",
        "NL_NAME_3": null,
        "VARNAME_3": null,
        "TYPE_3": "Barangay",
        "ENGTYPE_3": "Village",
        "PROVINCE": "Bohol",
        "REGION": "Central Visayas (Region VII)"
      },
      "geometry": {
        "type": "Polygon",
        "coordinates": [
          [
            [123.88809967041016, 9.661390304565487],
            [123.87922668457043, 9.661870002746582],
            [123.86746978759766, 9.656530380249023],
            [123.86797332763683, 9.652529716491756],
            [123.86580657958984, 9.648929595947322],
            [123.86518859863281, 9.647930145263672],
            [123.86483764648438, 9.646430015563908],
            [123.86746215820312, 9.642609596252555],
            [123.86962127685547, 9.63963985443121],
            [123.8793869018557, 9.642350196838379],
            [123.88807678222656, 9.651550292968864],
            [123.88809967041016, 9.661390304565487]
          ]
        ]
      }
    },
    {
      "type": "Feature",
      "properties": {
        "ID_0": 177,
        "ISO": "PHL",
        "NAME_0": "Philippines",
        "ID_1": 15,
        "NAME_1": "Bohol",
        "ID_2": 252,
        "NAME_2": "Tagbilaran City",
        "ID_3": 5728,
        "NAME_3": "Dao",
        "NL_NAME_3": null,
        "VARNAME_3": null,
        "TYPE_3": "Barangay",
        "ENGTYPE_3": "Village",
        "PROVINCE": "Bohol",
        "REGION": "Central Visayas (Region VII)"
      },
      "geometry": {
        "type": "Polygon",
        "coordinates": [
          [
            [123.87283325195312, 9.681050300598258],
            [123.86740112304699, 9.682900428771916],
            [123.86374664306663, 9.675840377807617],
            [123.85964965820312, 9.668729782104435],
            [123.85912322998047, 9.664079666137695],
            [123.86746978759766, 9.656530380249023],
            [123.87922668457043, 9.661870002746582],
            [123.87283325195312, 9.681050300598258]
          ]
        ]
      }
    },
    {
      "type": "Feature",
      "properties": {
        "ID_0": 177,
        "ISO": "PHL",
        "NAME_0": "Philippines",
        "ID_1": 15,
        "NAME_1": "Bohol",
        "ID_2": 252,
        "NAME_2": "Tagbilaran City",
        "ID_3": 5729,
        "NAME_3": "Manga",
        "NL_NAME_3": null,
        "VARNAME_3": null,
        "TYPE_3": "Barangay",
        "ENGTYPE_3": "Village",
        "PROVINCE": "Bohol",
        "REGION": "Central Visayas (Region VII)"
      },
      "geometry": {
        "type": "Polygon",
        "coordinates": [
          [
            [123.86585998535168, 9.694179534912223],
            [123.86316680908203, 9.694609642028865],
            [123.86251831054688, 9.699879646301326],
            [123.86083221435547, 9.70110988616949],
            [123.85481262207043, 9.69806957244873],
            [123.85555267334007, 9.688879966735897],
            [123.8639602661134, 9.689180374145621],
            [123.86585998535168, 9.694179534912223]
          ]
        ]
      }
    },
    {
      "type": "Feature",
      "properties": {
        "ID_0": 177,
        "ISO": "PHL",
        "NAME_0": "Philippines",
        "ID_1": 15,
        "NAME_1": "Bohol",
        "ID_2": 252,
        "NAME_2": "Tagbilaran City",
        "ID_3": 5730,
        "NAME_3": "Mansasa",
        "NL_NAME_3": null,
        "VARNAME_3": null,
        "TYPE_3": "Barangay",
        "ENGTYPE_3": "Village",
        "PROVINCE": "Bohol",
        "REGION": "Central Visayas (Region VII)"
      },
      "geometry": {
        "type": "Polygon",
        "coordinates": [
          [
            [123.8793869018557, 9.642350196838379],
            [123.86962127685547, 9.63963985443121],
            [123.86746215820312, 9.642609596252555],
            [123.8652572631836, 9.637390136718807],
            [123.86396789550793, 9.634209632873592],
            [123.86743927001964, 9.631210327148438],
            [123.8706512451173, 9.63024997711193],
            [123.87197113037121, 9.627619743347282],
            [123.87352752685558, 9.627169609069881],
            [123.87390136718761, 9.628780364990348],
            [123.8793869018557, 9.642350196838379]
          ]
        ]
      }
    },
    {
      "type": "Feature",
      "properties": {
        "ID_0": 177,
        "ISO": "PHL",
        "NAME_0": "Philippines",
        "ID_1": 15,
        "NAME_1": "Bohol",
        "ID_2": 252,
        "NAME_2": "Tagbilaran City",
        "ID_3": 5731,
        "NAME_3": "Poblacion I",
        "NL_NAME_3": null,
        "VARNAME_3": null,
        "TYPE_3": "Barangay",
        "ENGTYPE_3": "Village",
        "PROVINCE": "Bohol",
        "REGION": "Central Visayas (Region VII)"
      },
      "geometry": {
        "type": "Polygon",
        "coordinates": [
          [
            [123.8652572631836, 9.637390136718807],
            [123.8581314086914, 9.63850021362316],
            [123.85619354248058, 9.639579772949162],
            [123.8544387817384, 9.63626956939703],
            [123.85719299316406, 9.636580467224121],
            [123.860107421875, 9.635120391845703],
            [123.86396789550793, 9.634209632873592],
            [123.8652572631836, 9.637390136718807]
          ]
        ]
      }
    },
    {
      "type": "Feature",
      "properties": {
        "ID_0": 177,
        "ISO": "PHL",
        "NAME_0": "Philippines",
        "ID_1": 15,
        "NAME_1": "Bohol",
        "ID_2": 252,
        "NAME_2": "Tagbilaran City",
        "ID_3": 5732,
        "NAME_3": "Poblacion II",
        "NL_NAME_3": null,
        "VARNAME_3": null,
        "TYPE_3": "Barangay",
        "ENGTYPE_3": "Village",
        "PROVINCE": "Bohol",
        "REGION": "Central Visayas (Region VII)"
      },
      "geometry": {
        "type": "Polygon",
        "coordinates": [
          [
            [123.86250305175781, 9.646989822387752],
            [123.85613250732433, 9.648099899292106],
            [123.85035705566406, 9.647890090942383],
            [123.85040283203148, 9.644929885864371],
            [123.85269927978527, 9.642979621887207],
            [123.85285186767578, 9.640589714050407],
            [123.8544387817384, 9.63626956939703],
            [123.85619354248058, 9.639579772949162],
            [123.85957336425793, 9.642840385437069],
            [123.86250305175781, 9.646989822387752]
          ]
        ]
      }
    },
    {
      "type": "Feature",
      "properties": {
        "ID_0": 177,
        "ISO": "PHL",
        "NAME_0": "Philippines",
        "ID_1": 15,
        "NAME_1": "Bohol",
        "ID_2": 252,
        "NAME_2": "Tagbilaran City",
        "ID_3": 5733,
        "NAME_3": "Poblacion III",
        "NL_NAME_3": null,
        "VARNAME_3": null,
        "TYPE_3": "Barangay",
        "ENGTYPE_3": "Village",
        "PROVINCE": "Bohol",
        "REGION": "Central Visayas (Region VII)"
      },
      "geometry": {
        "type": "Polygon",
        "coordinates": [
          [
            [123.86483764648438, 9.646430015563908],
            [123.86250305175781, 9.646989822387752],
            [123.85957336425793, 9.642840385437069],
            [123.85619354248058, 9.639579772949162],
            [123.8581314086914, 9.63850021362316],
            [123.8652572631836, 9.637390136718807],
            [123.86746215820312, 9.642609596252555],
            [123.86483764648438, 9.646430015563908]
          ]
        ]
      }
    },
    {
      "type": "Feature",
      "properties": {
        "ID_0": 177,
        "ISO": "PHL",
        "NAME_0": "Philippines",
        "ID_1": 15,
        "NAME_1": "Bohol",
        "ID_2": 252,
        "NAME_2": "Tagbilaran City",
        "ID_3": 5734,
        "NAME_3": "San Isidro",
        "NL_NAME_3": null,
        "VARNAME_3": null,
        "TYPE_3": "Barangay",
        "ENGTYPE_3": "Village",
        "PROVINCE": "Bohol",
        "REGION": "Central Visayas (Region VII)"
      },
      "geometry": {
        "type": "Polygon",
        "coordinates": [
          [
            [123.88854980468773, 9.682299613952694],
            [123.88007354736328, 9.68552017211914],
            [123.87283325195312, 9.681050300598258],
            [123.87922668457043, 9.661870002746582],
            [123.88809967041016, 9.661390304565487],
            [123.88854980468773, 9.682299613952694]
          ]
        ]
      }
    },
    {
      "type": "Feature",
      "properties": {
        "ID_0": 177,
        "ISO": "PHL",
        "NAME_0": "Philippines",
        "ID_1": 15,
        "NAME_1": "Bohol",
        "ID_2": 252,
        "NAME_2": "Tagbilaran City",
        "ID_3": 5735,
        "NAME_3": "Taloto",
        "NL_NAME_3": null,
        "VARNAME_3": null,
        "TYPE_3": "Barangay",
        "ENGTYPE_3": "Village",
        "PROVINCE": "Bohol",
        "REGION": "Central Visayas (Region VII)"
      },
      "geometry": {
        "type": "Polygon",
        "coordinates": [
          [
            [123.86374664306663, 9.675840377807617],
            [123.85384368896496, 9.68507003784174],
            [123.84956359863281, 9.679880142211857],
            [123.84913635253918, 9.676819801330566],
            [123.84707641601562, 9.6739501953125],
            [123.84429931640648, 9.667499542236442],
            [123.85964965820312, 9.668729782104435],
            [123.86374664306663, 9.675840377807617]
          ]
        ]
      }
    },
    {
      "type": "Feature",
      "properties": {
        "ID_0": 177,
        "ISO": "PHL",
        "NAME_0": "Philippines",
        "ID_1": 15,
        "NAME_1": "Bohol",
        "ID_2": 252,
        "NAME_2": "Tagbilaran City",
        "ID_3": 5736,
        "NAME_3": "Tiptip",
        "NL_NAME_3": null,
        "VARNAME_3": null,
        "TYPE_3": "Barangay",
        "ENGTYPE_3": "Village",
        "PROVINCE": "Bohol",
        "REGION": "Central Visayas (Region VII)"
      },
      "geometry": {
        "type": "Polygon",
        "coordinates": [
          [
            [123.86585998535168, 9.694179534912223],
            [123.8639602661134, 9.689180374145621],
            [123.86829376220703, 9.684289932250977],
            [123.86740112304699, 9.682900428771916],
            [123.87283325195312, 9.681050300598258],
            [123.88007354736328, 9.68552017211914],
            [123.87713623046886, 9.697879791259766],
            [123.87415313720703, 9.697239875793514],
            [123.86990356445324, 9.693670272827262],
            [123.86585998535168, 9.694179534912223]
          ]
        ]
      }
    },
    {
      "type": "Feature",
      "properties": {
        "ID_0": 177,
        "ISO": "PHL",
        "NAME_0": "Philippines",
        "ID_1": 15,
        "NAME_1": "Bohol",
        "ID_2": 252,
        "NAME_2": "Tagbilaran City",
        "ID_3": 5737,
        "NAME_3": "Ubujan",
        "NL_NAME_3": null,
        "VARNAME_3": null,
        "TYPE_3": "Barangay",
        "ENGTYPE_3": "Village",
        "PROVINCE": "Bohol",
        "REGION": "Central Visayas (Region VII)"
      },
      "geometry": {
        "type": "Polygon",
        "coordinates": [
          [
            [123.8639602661134, 9.689180374145621],
            [123.85555267334007, 9.688879966735897],
            [123.85384368896496, 9.68507003784174],
            [123.86374664306663, 9.675840377807617],
            [123.86740112304699, 9.682900428771916],
            [123.86829376220703, 9.684289932250977],
            [123.8639602661134, 9.689180374145621]
          ]
        ]
      }
    },
    {
      "type": "Feature",
      "properties": {
        "name": "Bool Barangay (center)",
        "barangay": "Bool",
        "type": "barangay_center"
      },
      "geometry": {
        "type": "Point",
        "coordinates": [123.8793668305932, 9.628594936544559]
      },
      "id": 0
    },
    {
      "type": "Feature",
      "properties": {
        "name": "Booy Barangay (center)",
        "barangay": "Booy",
        "type": "barangay_center"
      },
      "geometry": {
        "type": "Point",
        "coordinates": [123.84762331992226, 9.661073586720136]
      }
    },
    {
      "type": "Feature",
      "properties": {
        "name": "Cabawan Barangay (center)",
        "barangay": "Cabawan",
        "type": "barangay_center"
      },
      "geometry": {
        "type": "Point",
        "coordinates": [123.8885429831667, 9.68841120590514]
      },
      "id": 17
    },
    {
      "type": "Feature",
      "properties": {
        "name": "Cogon Barangay (center)",
        "barangay": "Cogon",
        "type": "barangay_center"
      },
      "geometry": {
        "type": "Point",
        "coordinates": [123.85995507159373, 9.654034162120965]
      }
    },
    {
      "type": "Feature",
      "properties": {
        "name": "Dao Barangay (center)",
        "barangay": "Dao",
        "type": "barangay_center"
      },
      "geometry": {
        "type": "Point",
        "coordinates": [123.8700222406037, 9.673128116350668]
      },
      "id": 4
    },
    {
      "type": "Feature",
      "properties": {
        "name": "Dampas Barangay (center)",
        "barangay": "Dampas",
        "type": "barangay_center"
      },
      "geometry": {
        "type": "Point",
        "coordinates": [123.87125026742297, 9.645665548516831]
      }
    },
    {
      "type": "Feature",
      "properties": {
        "name": "Manga Barangay (center)",
        "barangay": "Manga",
        "type": "barangay_center"
      },
      "geometry": {
        "type": "Point",
        "coordinates": [123.86254751730496, 9.692994636007498]
      },
      "id": 6
    },
    {
      "type": "Feature",
      "properties": {
        "name": "Mansasa Barangay (center)",
        "barangay": "Mansasa",
        "type": "barangay_center"
      },
      "geometry": {
        "type": "Point",
        "coordinates": [123.86906600107119, 9.633719144479528]
      }
    },
    {
      "type": "Feature",
      "properties": {
        "name": "Poblacion I (center)",
        "barangay": "Poblacion I",
        "type": "barangay_center"
      },
      "geometry": {
        "type": "Point",
        "coordinates": [123.86109700222494, 9.637116252095424]
      }
    },
    {
      "type": "Feature",
      "properties": {
        "name": "Poblacion II (center)",
        "barangay": "Poblacion II",
        "type": "barangay_center"
      },
      "geometry": {
        "type": "Point",
        "coordinates": [123.85109697845786, 9.645443612374933]
      },
      "id": 15
    },
    {
      "type": "Feature",
      "properties": {
        "name": "Poblacion III (center)",
        "barangay": "Poblacion III",
        "type": "barangay_center"
      },
      "geometry": {
        "type": "Point",
        "coordinates": [123.85976866067233, 9.641612121881721]
      }
    },
    {
      "type": "Feature",
      "properties": {
        "name": "San Isidro (center)",
        "barangay": "San Isidro",
        "type": "barangay_center"
      },
      "geometry": {
        "type": "Point",
        "coordinates": [123.88325133750703, 9.676297751137469]
      },
      "id": 11
    },
    {
      "type": "Feature",
      "properties": {
        "name": "Taloto (center)",
        "barangay": "Taloto",
        "type": "barangay_center"
      },
      "geometry": {
        "type": "Point",
        "coordinates": [123.85361874612715, 9.67542985627557]
      },
      "id": 14
    },
    {
      "type": "Feature",
      "properties": {
        "name": "Tiptip (center)",
        "barangay": "Tiptip",
        "type": "barangay_center"
      },
      "geometry": {
        "type": "Point",
        "coordinates": [123.87298019872708, 9.686839414205267]
      },
      "id": 13
    },
    {
      "type": "Feature",
      "properties": {
        "name": "Ubujan (center)",
        "barangay": "Ubujan",
        "type": "barangay_center"
      },
      "geometry": {
        "type": "Point",
        "coordinates": [123.8598940863248, 9.686311675394066]
      },
      "id": 15
    }
  ]
}
